NAVSTAR 67 (USA 239)
1 38833U 12053A   26182.77459940  .00000033  00000+0  00000+0 0  9994
2 38833  53.5881 143.0019 0181172  65.9876 295.8558  2.00567786 99737
